[{"OBJECT_NAME":"ATLAS CENTAUR 2","OBJECT_ID":"1963-047A","EPOCH":"2026-03-26T10:35:21.738048","MEAN_MOTION":14.12131187,"ECCENTRICITY":0.0547422,"INCLINATION":30.3562,"RA_OF_ASC_NODE":102.0187,"ARG_OF_PERICENTER":227.9304,"MEAN_ANOMALY":127.3468,"EPHEMERIS_TYPE":0,"CLASSIFICATION_TYPE":"U","NORAD_CAT_ID":694,"ELEMENT_SET_NO":999,"REV_AT_EPOCH":13399,"BSTAR":0.00023329,"MEAN_MOTION_DOT":2.027e-5,"MEAN_MOTION_DDOT":0},{"OBJECT_NAME":"THOR AGENA D R/B","OBJECT_ID":"1964-002A","EPOCH":"2026-03-26T11:26:58.847136","MEAN_MOTION":14.34028636,"ECCENTRICITY":0.0032455,"INCLINATION":99.1217,"RA_OF_ASC_NODE":99.7294,"ARG_OF_PERICENTER":208.0571,"MEAN_ANOMALY":151.8864,"EPHEMERIS_TYPE":0,"CLASSIFICATION_TYPE":"U","NORAD_CAT_ID":733,"ELEMENT_SET_NO":999,"REV_AT_EPOCH":24070,"BSTAR":7.8426e-5,"MEAN_MOTION_DOT":1.71e-6,"MEAN_MOTION_DDOT":0},{"OBJECT_NAME":"SL-3 R/B","OBJECT_ID":"1964-053B","EPOCH":"2026-03-26T20:51:04.350240","MEAN_MOTION":14.61379577,"ECCENTRICITY":0.0080344,"INCLINATION":65.0756,"RA_OF_ASC_NODE":280.8702,"ARG_OF_PERICENTER":286.8142,"MEAN_ANOMALY":72.4156,"EPHEMERIS_TYPE":0,"CLASSIFICATION_TYPE":"U","NORAD_CAT_ID":877,"ELEMENT_SET_NO":999,"REV_AT_EPOCH":26930,"BSTAR":6.0766e-5,"MEAN_MOTION_DOT":1.89e-6,"MEAN_MOTION_DDOT":0},{"OBJECT_NAME":"SL-8 R/B","OBJECT_ID":"1967-045B","EPOCH":"2026-03-26T14:22:03.055008","MEAN_MOTION":14.45635791,"ECCENTRICITY":0.0064801,"INCLINATION":74.0115,"RA_OF_ASC_NODE":316.5125,"ARG_OF_PERICENTER":319.0193,"MEAN_ANOMALY":40.6103,"EPHEMERIS_TYPE":0,"CLASSIFICATION_TYPE":"U","NORAD_CAT_ID":2802,"ELEMENT_SET_NO":999,"REV_AT_EPOCH":9146,"BSTAR":8.3134e-5,"MEAN_MOTION_DOT":2.73e-6,"MEAN_MOTION_DDOT":0},{"OBJECT_NAME":"SL-8 R/B","OBJECT_ID":"1968-040B","EPOCH":"2026-03-26T21:05:56.455296","MEAN_MOTION":15.0336809,"ECCENTRICITY":0.0023283,"INCLINATION":74.0295,"RA_OF_ASC_NODE":278.5652,"ARG_OF_PERICENTER":95.5721,"MEAN_ANOMALY":264.8123,"EPHEMERIS_TYPE":0,"CLASSIFICATION_TYPE":"U","NORAD_CAT_ID":3230,"ELEMENT_SET_NO":999,"REV_AT_EPOCH":9259,"BSTAR":0.00029198,"MEAN_MOTION_DOT":3.95e-5,"MEAN_MOTION_DDOT":0},{"OBJECT_NAME":"OAO 2","OBJECT_ID":"1968-110A","EPOCH":"2026-03-26T14:47:00.946752","MEAN_MOTION":14.47316969,"ECCENTRICITY":0.0005913,"INCLINATION":34.9925,"RA_OF_ASC_NODE":170.7168,"ARG_OF_PERICENTER":328.5487,"MEAN_ANOMALY":31.4849,"EPHEMERIS_TYPE":0,"CLASSIFICATION_TYPE":"U","NORAD_CAT_ID":3597,"ELEMENT_SET_NO":999,"REV_AT_EPOCH":2155,"BSTAR":6.3457e-5,"MEAN_MOTION_DOT":2.17e-6,"MEAN_MOTION_DDOT":0},{"OBJECT_NAME":"ISIS 1","OBJECT_ID":"1969-009A","EPOCH":"2026-03-26T10:43:06.075840","MEAN_MOTION":11.30418436,"ECCENTRICITY":0.1707867,"INCLINATION":88.4513,"RA_OF_ASC_NODE":153.4802,"ARG_OF_PERICENTER":55.3601,"MEAN_ANOMALY":319.6804,"EPHEMERIS_TYPE":0,"CLASSIFICATION_TYPE":"U","NORAD_CAT_ID":3669,"ELEMENT_SET_NO":999,"REV_AT_EPOCH":35042,"BSTAR":6.3729e-5,"MEAN_MOTION_DOT":1.1e-6,"MEAN_MOTION_DDOT":0},{"OBJECT_NAME":"SERT 2","OBJECT_ID":"1970-009A","EPOCH":"2026-03-26T10:09:58.111200","MEAN_MOTION":13.58731364,"ECCENTRICITY":0.0005578,"INCLINATION":99.2779,"RA_OF_ASC_NODE":27.6033,"ARG_OF_PERICENTER":116.8322,"MEAN_ANOMALY":351.1227,"EPHEMERIS_TYPE":0,"CLASSIFICATION_TYPE":"U","NORAD_CAT_ID":4327,"ELEMENT_SET_NO":999,"REV_AT_EPOCH":78216,"BSTAR":7.0824e-5,"MEAN_MOTION_DOT":1.0e-7,"MEAN_MOTION_DDOT":0},{"OBJECT_NAME":"SL-3 R/B","OBJECT_ID":"1971-028B","EPOCH":"2026-03-26T21:21:48.345696","MEAN_MOTION":15.62633322,"ECCENTRICITY":0.0014207,"INCLINATION":81.2367,"RA_OF_ASC_NODE":30.7626,"ARG_OF_PERICENTER":213.4447,"MEAN_ANOMALY":146.5911,"EPHEMERIS_TYPE":0,"CLASSIFICATION_TYPE":"U","NORAD_CAT_ID":5118,"ELEMENT_SET_NO":999,"REV_AT_EPOCH":99135,"BSTAR":0.00051065,"MEAN_MOTION_DOT":0.00046062,"MEAN_MOTION_DDOT":0},{"OBJECT_NAME":"ASTEX 1","OBJECT_ID":"1971-089A","EPOCH":"2026-03-26T15:38:28.872384","MEAN_MOTION":14.50786517,"ECCENTRICITY":0.0016674,"INCLINATION":92.7096,"RA_OF_ASC_NODE":157.2423,"ARG_OF_PERICENTER":34.9213,"MEAN_ANOMALY":325.3083,"EPHEMERIS_TYPE":0,"CLASSIFICATION_TYPE":"U","NORAD_CAT_ID":5560,"ELEMENT_SET_NO":999,"REV_AT_EPOCH":86476,"BSTAR":0.00010036,"MEAN_MOTION_DOT":3.95e-6,"MEAN_MOTION_DDOT":0},{"OBJECT_NAME":"SL-8 R/B","OBJECT_ID":"1971-119B","EPOCH":"2026-03-26T16:50:26.970720","MEAN_MOTION":14.38190549,"ECCENTRICITY":0.0546666,"INCLINATION":73.8857,"RA_OF_ASC_NODE":143.9138,"ARG_OF_PERICENTER":106.9465,"MEAN_ANOMALY":259.2339,"EPHEMERIS_TYPE":0,"CLASSIFICATION_TYPE":"U","NORAD_CAT_ID":5730,"ELEMENT_SET_NO":999,"REV_AT_EPOCH":65793,"BSTAR":0.0003687,"MEAN_MOTION_DOT":7.035e-5,"MEAN_MOTION_DDOT":0},{"OBJECT_NAME":"OAO 3 (COPERNICUS)","OBJECT_ID":"1972-065A","EPOCH":"2026-03-26T17:04:56.439840","MEAN_MOTION":14.60010998,"ECCENTRICITY":0.0007249,"INCLINATION":35.0049,"RA_OF_ASC_NODE":200.3314,"ARG_OF_PERICENTER":297.9031,"MEAN_ANOMALY":206.829,"EPHEMERIS_TYPE":0,"CLASSIFICATION_TYPE":"U","NORAD_CAT_ID":6153,"ELEMENT_SET_NO":999,"REV_AT_EPOCH":84868,"BSTAR":6.8887e-5,"MEAN_MOTION_DOT":3.15e-6,"MEAN_MOTION_DDOT":0},{"OBJECT_NAME":"ATLAS CENTAUR R/B","OBJECT_ID":"1972-065B","EPOCH":"2026-03-26T07:33:00.192384","MEAN_MOTION":14.77732108,"ECCENTRICITY":0.0033165,"INCLINATION":35.0006,"RA_OF_ASC_NODE":208.3204,"ARG_OF_PERICENTER":151.0162,"MEAN_ANOMALY":209.2387,"EPHEMERIS_TYPE":0,"CLASSIFICATION_TYPE":"U","NORAD_CAT_ID":6155,"ELEMENT_SET_NO":999,"REV_AT_EPOCH":84372,"BSTAR":0.00018362,"MEAN_MOTION_DOT":1.327e-5,"MEAN_MOTION_DDOT":0},{"OBJECT_NAME":"SL-8 R/B","OBJECT_ID":"1975-112B","EPOCH":"2026-03-26T16:25:11.770464","MEAN_MOTION":14.38213367,"ECCENTRICITY":0.0014522,"INCLINATION":74.0631,"RA_OF_ASC_NODE":347.6528,"ARG_OF_PERICENTER":73.8481,"MEAN_ANOMALY":286.4271,"EPHEMERIS_TYPE":0,"CLASSIFICATION_TYPE":"U","NORAD_CAT_ID":8459,"ELEMENT_SET_NO":999,"REV_AT_EPOCH":63431,"BSTAR":8.096e-5,"MEAN_MOTION_DOT":2.2e-6,"MEAN_MOTION_DDOT":0},{"OBJECT_NAME":"SL-3 R/B","OBJECT_ID":"1977-057B","EPOCH":"2026-03-26T19:25:27.179040","MEAN_MOTION":15.45970828,"ECCENTRICITY":0.0006645,"INCLINATION":97.5797,"RA_OF_ASC_NODE":258.4921,"ARG_OF_PERICENTER":212.8218,"MEAN_ANOMALY":147.2619,"EPHEMERIS_TYPE":0,"CLASSIFICATION_TYPE":"U","NORAD_CAT_ID":10114,"ELEMENT_SET_NO":999,"REV_AT_EPOCH":67097,"BSTAR":0.00029722,"MEAN_MOTION_DOT":0.00014409,"MEAN_MOTION_DDOT":0},{"OBJECT_NAME":"SEASAT 1","OBJECT_ID":"1978-064A","EPOCH":"2026-03-26T15:37:04.340352","MEAN_MOTION":14.46173724,"ECCENTRICITY":0.0002599,"INCLINATION":108.0079,"RA_OF_ASC_NODE":161.0884,"ARG_OF_PERICENTER":277.5793,"MEAN_ANOMALY":82.5057,"EPHEMERIS_TYPE":0,"CLASSIFICATION_TYPE":"U","NORAD_CAT_ID":10967,"ELEMENT_SET_NO":999,"REV_AT_EPOCH":50896,"BSTAR":0.00010411,"MEAN_MOTION_DOT":2.35e-6,"MEAN_MOTION_DDOT":0},{"OBJECT_NAME":"SL-14 R/B","OBJECT_ID":"1979-011B","EPOCH":"2026-03-26T09:57:28.016640","MEAN_MOTION":14.91928645,"ECCENTRICITY":0.0016176,"INCLINATION":82.5207,"RA_OF_ASC_NODE":80.6949,"ARG_OF_PERICENTER":7.6003,"MEAN_ANOMALY":352.5458,"EPHEMERIS_TYPE":0,"CLASSIFICATION_TYPE":"U","NORAD_CAT_ID":11267,"ELEMENT_SET_NO":999,"REV_AT_EPOCH":53127,"BSTAR":6.4024e-5,"MEAN_MOTION_DOT":6.74e-6,"MEAN_MOTION_DDOT":0}]
